{
  "type": "FeatureCollection",
  "features": [
    {
      "type": "Feature",
      "properties": {
        "norad_id": 34036,
        "name": "COSMOS 2251 DEB",
        "group": "cosmos-2251-debris",
        "lat": 59.71908027924521,
        "lon": -47.49425657857364,
        "alt_km": 577.0096484562873,
        "timestamp": "2025-12-06T11:28:11.455774+00:00",
        "meta_object_name": "COSMOS 2251 DEB",
        "meta_object_id": "1993-036HX",
        "meta_epoch": "2025-12-05T22:05:46.120416",
        "meta_mean_motion": 14.94133318,
        "meta_eccentricity": 0.00143278,
        "meta_inclination": 74.0195,
        "meta_ra_of_asc_node": 163.0208,
        "meta_arg_of_pericenter": 197.3301,
        "meta_mean_anomaly": 162.7395,
        "meta_ephemeris_type": 0,
        "meta_classification_type": "U",
        "meta_norad_cat_id": 34036,
        "meta_element_set_no": 999,
        "meta_rev_at_epoch": 88468,
        "meta_bstar": 0.005099004,
        "meta_mean_motion_dot": 0.0005506,
        "meta_mean_motion_ddot": 0,
        "tle_line1": "1 34036U 93036HX  25339.92067269  .00055060  00000+0  50990-2 0  9990",
        "tle_line2": "2 34036  74.0195 163.0208 0014327 197.3301 162.7395 14.94133318884689"
      },
      "geometry": {
        "type": "Point",
        "coordinates": [
          -47.49425657857364,
          59.71908027924521
        ]
      }
    },
    {
      "type": "Feature",
      "properties": {
        "norad_id": 34037,
        "name": "COSMOS 2251 DEB",
        "group": "cosmos-2251-debris",
        "lat": 73.30230962004782,
        "lon": 134.3046268244928,
        "alt_km": 736.0731604605608,
        "timestamp": "2025-12-06T11:28:11.455784+00:00",
        "meta_object_name": "COSMOS 2251 DEB",
        "meta_object_id": "1993-036HY",
        "meta_epoch": "2025-12-05T21:41:15.900864",
        "meta_mean_motion": 14.34635651,
        "meta_eccentricity": 0.00522838,
        "meta_inclination": 74.0529,
        "meta_ra_of_asc_node": 62.9538,
        "meta_arg_of_pericenter": 115.0468,
        "meta_mean_anomaly": 245.6125,
        "meta_ephemeris_type": 0,
        "meta_classification_type": "U",
        "meta_norad_cat_id": 34037,
        "meta_element_set_no": 999,
        "meta_rev_at_epoch": 87619,
        "meta_bstar": 0.00096310008,
        "meta_mean_motion_dot": 2.741e-05,
        "meta_mean_motion_ddot": 0,
        "tle_line1": "1 34037U 93036HY  25339.90365626  .00002741  00000+0  96310-3 0  9992",
        "tle_line2": "2 34037  74.0529  62.9538 0052283 115.0468 245.6125 14.34635651876198"
      },
      "geometry": {
        "type": "Point",
        "coordinates": [
          134.3046268244928,
          73.30230962004782
        ]
      }
    },
    {
      "type": "Feature",
      "properties": {
        "norad_id": 34040,
        "name": "COSMOS 2251 DEB",
        "group": "cosmos-2251-debris",
        "lat": 26.542560675452833,
        "lon": 84.47412515394146,
        "alt_km": 751.1889837584658,
        "timestamp": "2025-12-06T11:28:11.455795+00:00",
        "meta_object_name": "COSMOS 2251 DEB",
        "meta_object_id": "1993-036JB",
        "meta_epoch": "2025-12-05T16:02:36.663360",
        "meta_mean_motion": 13.68363409,
        "meta_eccentricity": 0.0342853,
        "meta_inclination": 73.9557,
        "meta_ra_of_asc_node": 77.5469,
        "meta_arg_of_pericenter": 32.3825,
        "meta_mean_anomaly": 329.7832,
        "meta_ephemeris_type": 0,
        "meta_classification_type": "U",
        "meta_norad_cat_id": 34040,
        "meta_element_set_no": 999,
        "meta_rev_at_epoch": 83503,
        "meta_bstar": 0.00057238154,
        "meta_mean_motion_dot": 7.16e-06,
        "meta_mean_motion_ddot": 0,
        "tle_line1": "1 34040U 93036JB  25339.66847990  .00000716  00000+0  57238-3 0  9994",
        "tle_line2": "2 34040  73.9557  77.5469 0342853  32.3825 329.7832 13.68363409835031"
      },
      "geometry": {
        "type": "Point",
        "coordinates": [
          84.47412515394146,
          26.542560675452833
        ]
      }
    },
    {
      "type": "Feature",
      "properties": {
        "norad_id": 34045,
        "name": "COSMOS 2251 DEB",
        "group": "cosmos-2251-debris",
        "lat": 34.86817767461887,
        "lon": 130.78716515183297,
        "alt_km": 777.2810457040187,
        "timestamp": "2025-12-06T11:28:11.455805+00:00",
        "meta_object_name": "COSMOS 2251 DEB",
        "meta_object_id": "1993-036JG",
        "meta_epoch": "2025-12-05T23:23:06.021600",
        "meta_mean_motion": 14.34062813,
        "meta_eccentricity": 0.0025424,
        "meta_inclination": 74.0386,
        "meta_ra_of_asc_node": 323.2112,
        "meta_arg_of_pericenter": 48.737,
        "meta_mean_anomaly": 15.8785,
        "meta_ephemeris_type": 0,
        "meta_classification_type": "U",
        "meta_norad_cat_id": 34045,
        "meta_element_set_no": 999,
        "meta_rev_at_epoch": 87936,
        "meta_bstar": 0.00016682708,
        "meta_mean_motion_dot": 4.42e-06,
        "meta_mean_motion_ddot": 0,
        "tle_line1": "1 34045U 93036JG  25339.97437525  .00000442  00000+0  16683-3 0  9997",
        "tle_line2": "2 34045  74.0386 323.2112 0025424  48.7370  15.8785 14.34062813879365"
      },
      "geometry": {
        "type": "Point",
        "coordinates": [
          130.78716515183297,
          34.86817767461887
        ]
      }
    },
    {
      "type": "Feature",
      "properties": {
        "norad_id": 34046,
        "name": "COSMOS 2251 DEB",
        "group": "cosmos-2251-debris",
        "lat": -32.87278865284235,
        "lon": -147.1765454725249,
        "alt_km": 758.1963209186988,
        "timestamp": "2025-12-06T11:28:11.455815+00:00",
        "meta_object_name": "COSMOS 2251 DEB",
        "meta_object_id": "1993-036JH",
        "meta_epoch": "2025-12-05T13:37:22.619424",
        "meta_mean_motion": 14.46384496,
        "meta_eccentricity": 0.00747423,
        "meta_inclination": 74.0401,
        "meta_ra_of_asc_node": 23.8642,
        "meta_arg_of_pericenter": 109.4178,
        "meta_mean_anomaly": 46.0809,
        "meta_ephemeris_type": 0,
        "meta_classification_type": "U",
        "meta_norad_cat_id": 34046,
        "meta_element_set_no": 999,
        "meta_rev_at_epoch": 87722,
        "meta_bstar": 0.0021747173,
        "meta_mean_motion_dot": 8.067e-05,
        "meta_mean_motion_ddot": 0,
        "tle_line1": "1 34046U 93036JH  25339.56762291  .00008067  00000+0  21747-2 0  9991",
        "tle_line2": "2 34046  74.0401  23.8642 0074742 109.4178  46.0809 14.46384496877226"
      },
      "geometry": {
        "type": "Point",
        "coordinates": [
          -147.1765454725249,
          -32.87278865284235
        ]
      }
    },
    {
      "type": "Feature",
      "properties": {
        "norad_id": 34050,
        "name": "COSMOS 2251 DEB",
        "group": "cosmos-2251-debris",
        "lat": 34.74466191053823,
        "lon": -170.6170289550387,
        "alt_km": 816.5612796464256,
        "timestamp": "2025-12-06T11:28:11.455825+00:00",
        "meta_object_name": "COSMOS 2251 DEB",
        "meta_object_id": "1993-036JM",
        "meta_epoch": "2025-12-05T23:02:09.306816",
        "meta_mean_motion": 13.96163671,
        "meta_eccentricity": 0.02146298,
        "meta_inclination": 74.0887,
        "meta_ra_of_asc_node": 21.6822,
        "meta_arg_of_pericenter": 87.7412,
        "meta_mean_anomaly": 330.8278,
        "meta_ephemeris_type": 0,
        "meta_classification_type": "U",
        "meta_norad_cat_id": 34050,
        "meta_element_set_no": 999,
        "meta_rev_at_epoch": 85337,
        "meta_bstar": 0.00086834686,
        "meta_mean_motion_dot": 1.426e-05,
        "meta_mean_motion_ddot": 0,
        "tle_line1": "1 34050U 93036JM  25339.95982994  .00001426  00000+0  86835-3 0  9995",
        "tle_line2": "2 34050  74.0887  21.6822 0214629  87.7412 330.8278 13.96163671853372"
      },
      "geometry": {
        "type": "Point",
        "coordinates": [
          -170.6170289550387,
          34.74466191053823
        ]
      }
    },
    {
      "type": "Feature",
      "properties": {
        "norad_id": 34053,
        "name": "COSMOS 2251 DEB",
        "group": "cosmos-2251-debris",
        "lat": 72.42515227413175,
        "lon": 6.035388321514441,
        "alt_km": 879.5422255803396,
        "timestamp": "2025-12-06T11:28:11.455836+00:00",
        "meta_object_name": "COSMOS 2251 DEB",
        "meta_object_id": "1993-036JQ",
        "meta_epoch": "2025-12-05T20:47:22.895808",
        "meta_mean_motion": 13.49144359,
        "meta_eccentricity": 0.04218121,
        "meta_inclination": 73.8445,
        "meta_ra_of_asc_node": 253.2465,
        "meta_arg_of_pericenter": 42.9472,
        "meta_mean_anomaly": 320.3761,
        "meta_ephemeris_type": 0,
        "meta_classification_type": "U",
        "meta_norad_cat_id": 34053,
        "meta_element_set_no": 999,
        "meta_rev_at_epoch": 82591,
        "meta_bstar": 0.0013419258,
        "meta_mean_motion_dot": 1.44e-05,
        "meta_mean_motion_ddot": 0,
        "tle_line1": "1 34053U 93036JQ  25339.86623722  .00001440  00000+0  13419-2 0  9992",
        "tle_line2": "2 34053  73.8445 253.2465 0421812  42.9472 320.3761 13.49144359825911"
      },
      "geometry": {
        "type": "Point",
        "coordinates": [
          6.035388321514441,
          72.42515227413175
        ]
      }
    }
  ]
}